#aV2013 10  7  0  0  0.00000000     288 DD+AD WGS84 FIT  NGA
## 1761  86400.00000000   300.00000000 56572 0.0000000000000
+   31     1  2  3  4  5  6  7  8  9 10 11 12 13 14 15 16 17
+         18 19 20 21 22 23 24 25 26 27 28 29 31 32  0  0  0
+          0  0  0  0  0  0  0  0  0  0  0  0  0  0  0  0  0
+          0  0  0  0  0  0  0  0  0  0  0  0  0  0  0  0  0
+          0  0  0  0  0  0  0  0  0  0  0  0  0  0  0  0  0
++         2  2  2  2  2  2  2  2  2  2  2  2  2  2  2  2  2
++         2  2  2  2  2  2  2  2  2  2  2  2  2  2  2  0  0
++         0  0  0  0  0  0  0  0  0  0  0  0  0  0  0  0  0
++         0  0  0  0  0  0  0  0  0  0  0  0  0  0  0  0  0
++         0  0  0  0  0  0  0  0  0  0  0  0  0  0  0  0  0
%c cc cc ccc ccc cccc cccc cccc cccc ccccc ccccc ccccc ccccc
%c cc cc ccc ccc cccc cccc cccc cccc ccccc ccccc ccccc ccccc
%f  0.0000000  0.000000000  0.00000000000  0.000000000000000
%f  0.0000000  0.000000000  0.00000000000  0.000000000000000
%i    0    0    0    0      0      0      0      0         0
%i    0    0    0    0      0      0      0      0         0
/*      NGA, ST. LOUIS,MO.                                  
/*   EPHEMERIS COMPUTED FROM  1 DAYS OF DATA
/*   EPOCHA SMOOTHER  
/* CCCCCCCCCCCCCCCCCCCCCCCCCCCCCCCCCCCCCCCCCCCCCCCCCCCCCCCCC
*  2013 10  7 15 40  0.00000000                                                 
P  1  13820.739723  -8340.867950  21042.204294     82.557160                    
V  1   3955.287779  26530.380879   8011.569670      0.037823                    
P  2 -13664.229378 -17135.721281 -15116.393301    454.816495                    
V  2   -594.460630 -19580.209336  21887.667066      0.017541                    
P  3  25059.001613   8772.930256  -2951.708496    269.561733                    
V  3  -3855.531420   2499.289480 -30773.260416      0.052204                    
P  4  -7054.398319 -24983.150730  -5202.104337      1.723309                    
V  4   2787.043198  -6714.083484  30471.413993      0.004909                    
P  5 -17156.609047  -4789.596896 -19779.357591   -399.221559                    
V  5  19218.539468 -16101.910042 -12637.854679      0.003180                    
P  6  21792.574329  13479.187686  -7645.338894     90.791188                    
V  6 -10121.304000   -463.199409 -29060.899088      0.185086                    
P  7   6646.487608 -21979.933925 -12998.651438    266.907945                    
V  7   3818.942887  16405.396337 -25979.959978      0.041797                    
P  8   1213.376879 -26096.058688  -2130.371870      8.920239                    
V  8   2166.151899   2894.723298 -32822.210367      0.002394                    
P  9   -901.750021 -26306.713890  -3488.356700    273.836188                    
V  9   2585.087797   3487.721399 -31935.648221      0.027069                    
P 10  -1373.204694 -17259.770939 -20341.920646    -97.238291                    
V 10  21222.615841 -13871.973888  10921.250148     -0.013568                    
P 11  17329.504345   -479.656157  19695.434481   -426.537470                    
V 11   9767.698241  24483.456674  -7565.379878     -0.034198                    
P 12 -23214.321430   9648.899846   8194.315824    160.705592                    
V 12   7419.100752  -7708.872540  30120.100346      0.022107                    
P 13  11446.879584 -10362.220521 -21758.831181     72.456192                    
V 13  23693.213485  13449.769797   5957.714284     -0.038375                    
P 14   8288.628062  18010.475993  17961.592111    213.954276                    
V 14 -20419.186253  -9028.664584  18557.516429     -0.009459                    
P 15 -24538.661487  -1355.991096  10377.157711   -140.797246                    
V 15 -11247.123643  -7433.732663 -27218.997452     -0.018929                    
P 16  16687.740079   4876.099364 -20212.155104   -245.055218                    
V 16 -20717.449564  14755.414747 -13240.085937      0.008733                    
P 17  -7285.259351 -17742.381419  18700.645567    -28.723172                    
V 17  21469.603753   8822.755699  16703.975741     -0.036600                    
P 18 -13474.798360  20262.916085  10649.428706    278.084564                    
V 18 -12561.035869   5117.236241 -27037.919706      0.020292                    
P 19  24544.992167   6709.294918   8224.639165   -409.657790                    
V 19   8177.803738   6926.585640 -29213.384061     -0.027804                    
P 20  21834.952954 -14410.847063   4159.608074    127.668544                    
V 20  -1727.949427   6527.382386  30457.702997      0.027018                    
P 21  -4223.706775  23875.229277  -9645.824417   -322.413251                    
V 21  -5487.494993 -12722.757166 -27934.953853     -0.019056                    
P 22  -2296.548908  19134.684631  18418.043144    188.497299                    
V 22 -19692.472725  12355.322480 -15607.833680      0.019874                    
P 23  20531.845488  -3821.881745 -16547.658740     41.375703                    
V 23  18583.746732  10034.087431  20226.144640     -0.034388                    
P 24 -14873.938821   3722.469394  21679.725591    -15.096654                    
V 24  -3816.499911 -27288.193183   2119.204050     -0.007181                    
P 25 -18953.576771  18056.193716  -4228.091869    155.102918                    
V 25  -5682.156141   1292.629657  31520.401983      0.037868                    
P 26 -22785.510486 -13909.590208  -2057.281096    226.898151                    
V 26   2535.914297   -896.762917 -31770.319922      0.188917                    
P 27  23100.081877  12571.238957  -3777.505418    -45.215060                    
V 27  -5480.955828    700.811090 -31263.599150     -0.042554                    
P 28   6699.437052 -18814.866717  18010.097986    298.680688                    
V 28  18715.430288 -11062.802515 -19321.241133      0.031232                    
P 29 -14455.075596   8693.464950 -20466.706715    476.885083                    
V 29 -23055.327876 -12205.587834  11113.323153      0.031932                    
P 31   6805.249203  24601.992689  -6608.987066    327.418697                    
V 31  -1538.659095   8853.233490  30861.954719      0.007350                    
P 32  22916.005367  -3838.522549  12459.482718   -542.596602                    
V 32 -11882.693628  10959.541615  25976.811588      0.033931                    
EOF
